NESS                    
1 58020U 23155E   26068.76452457  .00019469  00000+0  74047-3 0  9996
2 58020  97.5941 152.6141 0006891 179.8776 180.2465 15.26794015133307
STARLINK-32939          
1 63149U 25043T   26068.22549086  .00028812  00000+0  10527-2 0  9992
2 63149  43.0009  18.6589 0001021 262.0467  98.0269 15.27573320 57291
